start=new Date('2023-04-05T00:00:00.000Z').valueOf();
sats=[{"TIME_SYSTEM":"UTC","GP_ID":"229497236","BSTAR":"0.00005220100000","TLE_LINE2":"2 53588  53.2198   6.7182 0001387  85.9931 274.1220 15.08840944 34599","MEAN_ELEMENT_THEORY":"SGP4","INCLINATION":"53.2198","CLASSIFICATION_TYPE":"U","EPHEMERIS_TYPE":"0","REV_AT_EPOCH":"3459","DECAY_DATE":null,"APOAPSIS":"540.702","PERIAPSIS":"538.783","OBJECT_NAME":"STARLINK-4691","MEAN_MOTION":"15.08840944","MEAN_ANOMALY":"274.1220","ARG_OF_PERICENTER":"85.9931","FILE":"3880211","MEAN_MOTION_DOT":"0.00000543","RA_OF_ASC_NODE":"6.7182","NORAD_CAT_ID":"53588","SEMIMAJOR_AXIS":"6917.878","MEAN_MOTION_DDOT":"0.0000000000000","ECCENTRICITY":"0.00013870","CENTER_NAME":"EARTH","EPOCH":"2023-04-04T22:16:10.594560","OBJECT_ID":"2022-104A","PERIOD":"95.437","TLE_LINE1":"1 53588U 22104A   23094.92790040  .00000543  00000-0  52201-4 0  9993","LAUNCH_DATE":"2022-08-28","RCS_SIZE":"LARGE","REF_FRAME":"TEME","SITE":"AFETR","OBJECT_TYPE":"PAYLOAD","ELEMENT_SET_NO":"999","COUNTRY_CODE":"US"},{"COUNTRY_CODE":"US","ELEMENT_SET_NO":"999","OBJECT_TYPE":"PAYLOAD","SITE":"AFETR","REF_FRAME":"TEME","RCS_SIZE":"LARGE","LAUNCH_DATE":"2022-08-28","TLE_LINE1":"1 53589U 22104B   23094.90947548  .00003219  00000-0  22023-3 0  9990","PERIOD":"95.438","OBJECT_ID":"2022-104B","CENTER_NAME":"EARTH","EPOCH":"2023-04-04T21:49:38.681472","ECCENTRICITY":"0.00015220","MEAN_MOTION_DDOT":"0.0000000000000","SEMIMAJOR_AXIS":"6917.881","NORAD_CAT_ID":"53589","RA_OF_ASC_NODE":"6.6000","MEAN_MOTION_DOT":"0.00003219","FILE":"3880211","ARG_OF_PERICENTER":"117.5740","MEAN_ANOMALY":"242.5407","MEAN_MOTION":"15.08839862","OBJECT_NAME":"STARLINK-4673","PERIAPSIS":"538.693","APOAPSIS":"540.799","DECAY_DATE":null,"EPHEMERIS_TYPE":"0","REV_AT_EPOCH":"3444","CLASSIFICATION_TYPE":"U","INCLINATION":"53.2183","MEAN_ELEMENT_THEORY":"SGP4","TLE_LINE2":"2 53589  53.2183   6.6000 0001522 117.5740 242.5407 15.08839862 34440","BSTAR":"0.00022023000000","GP_ID":"229497985","TIME_SYSTEM":"UTC"},{"BSTAR":"0.00001432300000","TIME_SYSTEM":"UTC","GP_ID":"229496236","CLASSIFICATION_TYPE":"U","INCLINATION":"53.2182","TLE_LINE2":"2 53590  53.2182   6.6928 0000976  97.0635 263.0468 15.08832714 34463","MEAN_ELEMENT_THEORY":"SGP4","REV_AT_EPOCH":"3446","EPHEMERIS_TYPE":"0","DECAY_DATE":null,"PERIAPSIS":"539.092","OBJECT_NAME":"STARLINK-4689","APOAPSIS":"540.443","MEAN_MOTION":"15.08832714","FILE":"3880211","MEAN_ANOMALY":"263.0468","ARG_OF_PERICENTER":"97.0635","MEAN_MOTION_DOT":"-0.00000060","RA_OF_ASC_NODE":"6.6928","NORAD_CAT_ID":"53590","ECCENTRICITY":"0.00009760","CENTER_NAME":"EARTH","EPOCH":"2023-04-04T22:10:52.673664","SEMIMAJOR_AXIS":"6917.903","MEAN_MOTION_DDOT":"0.0000000000000","OBJECT_ID":"2022-104C","PERIOD":"95.438","TLE_LINE1":"1 53590U 22104C   23094.92422076 -.00000060  00000-0  14323-4 0  9995","RCS_SIZE":"LARGE","REF_FRAME":"TEME","LAUNCH_DATE":"2022-08-28","OBJECT_TYPE":"PAYLOAD","ELEMENT_SET_NO":"999","SITE":"AFETR","COUNTRY_CODE":"US"},{"OBJECT_ID":"2022-104D","ECCENTRICITY":"0.00013520","CENTER_NAME":"EARTH","EPOCH":"2023-04-04T22:05:33.784224","SEMIMAJOR_AXIS":"6917.860","MEAN_MOTION_DDOT":"0.0000000000000","NORAD_CAT_ID":"53591","COUNTRY_CODE":"US","OBJECT_TYPE":"PAYLOAD","ELEMENT_SET_NO":"999","SITE":"AFETR","RCS_SIZE":"LARGE","REF_FRAME":"TEME","LAUNCH_DATE":"2022-08-28","PERIOD":"95.437","TLE_LINE1":"1 53591U 22104D   23094.92052991  .00010887  00000-0  70095-3 0  9995","DECAY_DATE":null,"EPHEMERIS_TYPE":"0","REV_AT_EPOCH":"3446","CLASSIFICATION_TYPE":"U","INCLINATION":"53.2178","MEAN_ELEMENT_THEORY":"SGP4","TLE_LINE2":"2 53591  53.2178   6.6734 0001352 112.1610 247.9525 15.08846730 34463","BSTAR":"0.00070095000000","TIME_SYSTEM":"UTC","GP_ID":"229496485","MEAN_MOTION_DOT":"0.00010887","RA_OF_ASC_NODE":"6.6734","FILE":"3880211","ARG_OF_PERICENTER":"112.1610","MEAN_ANOMALY":"247.9525","MEAN_MOTION":"15.08846730","PERIAPSIS":"538.790","OBJECT_NAME":"STARLINK-4674","APOAPSIS":"540.660"},{"OBJECT_ID":"2022-104E","NORAD_CAT_ID":"53592","SEMIMAJOR_AXIS":"6917.896","MEAN_MOTION_DDOT":"0.0000000000000","ECCENTRICITY":"0.00015230","EPOCH":"2023-04-04T22:00:15.643872","CENTER_NAME":"EARTH","SITE":"AFETR","OBJECT_TYPE":"PAYLOAD","ELEMENT_SET_NO":"999","COUNTRY_CODE":"US","PERIOD":"95.438","TLE_LINE1":"1 53592U 22104E   23094.91684773  .00001446  00000-0  10895-3 0  9997","LAUNCH_DATE":"2022-08-28","RCS_SIZE":"LARGE","REF_FRAME":"TEME","EPHEMERIS_TYPE":"0","REV_AT_EPOCH":"3444","DECAY_DATE":null,"TIME_SYSTEM":"UTC","GP_ID":"229497737","BSTAR":"0.00010895000000","TLE_LINE2":"2 53592  53.2169   6.6509 0001523 125.7214 234.3920 15.08835013 34443","MEAN_ELEMENT_THEORY":"SGP4","INCLINATION":"53.2169","CLASSIFICATION_TYPE":"U","ARG_OF_PERICENTER":"125.7214","MEAN_ANOMALY":"234.3920","FILE":"3880211","MEAN_MOTION_DOT":"0.00001446","RA_OF_ASC_NODE":"6.6509","APOAPSIS":"540.814","OBJECT_NAME":"STARLINK-4672","PERIAPSIS":"538.707","MEAN_MOTION":"15.08835013"},{"DECAY_DATE":null,"REV_AT_EPOCH":"3444","EPHEMERIS_TYPE":"0","INCLINATION":"53.2170","CLASSIFICATION_TYPE":"U","MEAN_ELEMENT_THEORY":"SGP4","TLE_LINE2":"2 53593  53.2170   6.6270 0001311  70.6270 289.4864 15.08838194 34447","BSTAR":"-0.00002372400000","GP_ID":"229497485","TIME_SYSTEM":"UTC","RA_OF_ASC_NODE":"6.6270","MEAN_MOTION_DOT":"-0.00000665","FILE":"3880211","ARG_OF_PERICENTER":"70.6270","MEAN_ANOMALY":"289.4864","MEAN_MOTION":"15.08838194","OBJECT_NAME":"STARLINK-4671","PERIAPSIS":"538.844","APOAPSIS":"540.658","OBJECT_ID":"2022-104F","EPOCH":"2023-04-04T21:54:57.259872","CENTER_NAME":"EARTH","ECCENTRICITY":"0.00013110","MEAN_MOTION_DDOT":"0.0000000000000","SEMIMAJOR_AXIS":"6917.886","NORAD_CAT_ID":"53593","COUNTRY_CODE":"US","ELEMENT_SET_NO":"999","OBJECT_TYPE":"PAYLOAD","SITE":"AFETR","REF_FRAME":"TEME","RCS_SIZE":"LARGE","LAUNCH_DATE":"2022-08-28","TLE_LINE1":"1 53593U 22104F   23094.91316273 -.00000665  00000-0 -23724-4 0  9995","PERIOD":"95.438"},{"ELEMENT_SET_NO":"999","OBJECT_TYPE":"PAYLOAD","SITE":"AFETR","COUNTRY_CODE":"US","TLE_LINE1":"1 53594U 22104G   23094.90210610  .00004677  00000-0  31178-3 0  9999","PERIOD":"95.438","REF_FRAME":"TEME","RCS_SIZE":"LARGE","LAUNCH_DATE":"2022-08-28","OBJECT_ID":"2022-104G","NORAD_CAT_ID":"53594","CENTER_NAME":"EARTH","EPOCH":"2023-04-04T21:39:01.967040","ECCENTRICITY":"0.00010410","MEAN_MOTION_DDOT":"0.0000000000000","SEMIMAJOR_AXIS":"6917.898","FILE":"3880211","ARG_OF_PERICENTER":"88.7853","MEAN_ANOMALY":"271.3258","RA_OF_ASC_NODE":"6.5586","MEAN_MOTION_DOT":"0.00004677","OBJECT_NAME":"STARLINK-4681","PERIAPSIS":"539.043","APOAPSIS":"540.483","MEAN_MOTION":"15.08834138","REV_AT_EPOCH":"3458","EPHEMERIS_TYPE":"0","DECAY_DATE":null,"BSTAR":"0.00031178000000","TIME_SYSTEM":"UTC","GP_ID":"229496736","INCLINATION":"53.2179","CLASSIFICATION_TYPE":"U","TLE_LINE2":"2 53594  53.2179   6.5586 0001041  88.7853 271.3258 15.08834138 34589","MEAN_ELEMENT_THEORY":"SGP4"},{"SITE":"AFETR","ELEMENT_SET_NO":"999","OBJECT_TYPE":"PAYLOAD","COUNTRY_CODE":"US","TLE_LINE1":"1 53595U 22104H   23094.90579369 -.00000488  00000-0 -12570-4 0  9993","PERIOD":"95.438","LAUNCH_DATE":"2022-08-28","REF_FRAME":"TEME","RCS_SIZE":"LARGE","OBJECT_ID":"2022-104H","NORAD_CAT_ID":"53595","MEAN_MOTION_DDOT":"0.0000000000000","SEMIMAJOR_AXIS":"6917.891","EPOCH":"2023-04-04T21:44:20.574816","CENTER_NAME":"EARTH","ECCENTRICITY":"0.00013400","ARG_OF_PERICENTER":"107.9799","MEAN_ANOMALY":"252.1340","FILE":"3880211","RA_OF_ASC_NODE":"6.5797","MEAN_MOTION_DOT":"-0.00000488","APOAPSIS":"540.683","OBJECT_NAME":"STARLINK-4684","PERIAPSIS":"538.829","MEAN_MOTION":"15.08836633","REV_AT_EPOCH":"3444","EPHEMERIS_TYPE":"0","DECAY_DATE":null,"TIME_SYSTEM":"UTC","GP_ID":"229496986","BSTAR":"-0.00001257000000","MEAN_ELEMENT_THEORY":"SGP4","TLE_LINE2":"2 53595  53.2187   6.5797 0001340 107.9799 252.1340 15.08836633 34444","CLASSIFICATION_TYPE":"U","INCLINATION":"53.2187"},{"COUNTRY_CODE":"US","OBJECT_TYPE":"PAYLOAD","ELEMENT_SET_NO":"999","SITE":"AFETR","RCS_SIZE":"LARGE","REF_FRAME":"TEME","LAUNCH_DATE":"2022-08-28","PERIOD":"95.437","TLE_LINE1":"1 53596U 22104J   23094.89473837  .00000664  00000-0  59821-4 0  9999","OBJECT_ID":"2022-104J","ECCENTRICITY":"0.00013820","EPOCH":"2023-04-04T21:28:25.395168","CENTER_NAME":"EARTH","SEMIMAJOR_AXIS":"6917.875","MEAN_MOTION_DDOT":"0.0000000000000","NORAD_CAT_ID":"53596","MEAN_MOTION_DOT":"0.00000664","RA_OF_ASC_NODE":"6.5151","FILE":"3880211","ARG_OF_PERICENTER":"71.6802","MEAN_ANOMALY":"288.4341","MEAN_MOTION":"15.08841883","OBJECT_NAME":"STARLINK-4668","PERIAPSIS":"538.784","APOAPSIS":"540.696","DECAY_DATE":null,"EPHEMERIS_TYPE":"0","REV_AT_EPOCH":"3411","INCLINATION":"53.2201","CLASSIFICATION_TYPE":"U","TLE_LINE2":"2 53596  53.2201   6.5151 0001382  71.6802 288.4341 15.08841883 34114","MEAN_ELEMENT_THEORY":"SGP4","BSTAR":"0.00005982100000","TIME_SYSTEM":"UTC","GP_ID":"229497237"},{"RA_OF_ASC_NODE":"6.5335","MEAN_MOTION_DOT":"0.00011910","FILE":"3880211","MEAN_ANOMALY":"286.7733","ARG_OF_PERICENTER":"73.3387","MEAN_MOTION":"15.08838031","PERIAPSIS":"538.945","OBJECT_NAME":"STARLINK-4682","APOAPSIS":"540.557","DECAY_DATE":null,"EPHEMERIS_TYPE":"0","REV_AT_EPOCH":"3411","INCLINATION":"53.2183","CLASSIFICATION_TYPE":"U","TLE_LINE2":"2 53597  53.2183   6.5335 0001165  73.3387 286.7733 15.08838031 34111","MEAN_ELEMENT_THEORY":"SGP4","BSTAR":"0.00076515000000","TIME_SYSTEM":"UTC","GP_ID":"229497986","COUNTRY_CODE":"US","ELEMENT_SET_NO":"999","OBJECT_TYPE":"PAYLOAD","SITE":"AFETR","REF_FRAME":"TEME","RCS_SIZE":"LARGE","LAUNCH_DATE":"2022-08-28","TLE_LINE1":"1 53597U 22104K   23094.89842901  .00011910  00000-0  76515-3 0  9996","PERIOD":"95.438","OBJECT_ID":"2022-104K","CENTER_NAME":"EARTH","EPOCH":"2023-04-04T21:33:44.266464","ECCENTRICITY":"0.00011650","MEAN_MOTION_DDOT":"0.0000000000000","SEMIMAJOR_AXIS":"6917.886","NORAD_CAT_ID":"53597"}];
